{
  "type": "FeatureCollection",
  "name": "ohio_cities",
  "features": [
    { "type": "Feature", "properties": { "NAME": "Columbus", "COUNTY": "Franklin" }, "geometry": { "type": "Point", "coordinates": [-82.9988, 39.9612] } },
    { "type": "Feature", "properties": { "NAME": "Cleveland", "COUNTY": "Cuyahoga" }, "geometry": { "type": "Point", "coordinates": [-81.6944, 41.4993] } },
    { "type": "Feature", "properties": { "NAME": "Cincinnati", "COUNTY": "Hamilton" }, "geometry": { "type": "Point", "coordinates": [-84.5120, 39.1031] } },
    { "type": "Feature", "properties": { "NAME": "Toledo", "COUNTY": "Lucas" }, "geometry": { "type": "Point", "coordinates": [-83.5379, 41.6528] } },
    { "type": "Feature", "properties": { "NAME": "Akron", "COUNTY": "Summit" }, "geometry": { "type": "Point", "coordinates": [-81.5190, 41.0814] } },
    { "type": "Feature", "properties": { "NAME": "Dayton", "COUNTY": "Montgomery" }, "geometry": { "type": "Point", "coordinates": [-84.1916, 39.7589] } },
    { "type": "Feature", "properties": { "NAME": "Parma", "COUNTY": "Cuyahoga" }, "geometry": { "type": "Point", "coordinates": [-81.7229, 41.4048] } },
    { "type": "Feature", "properties": { "NAME": "Canton", "COUNTY": "Stark" }, "geometry": { "type": "Point", "coordinates": [-81.3784, 40.7989] } },
    { "type": "Feature", "properties": { "NAME": "Youngstown", "COUNTY": "Mahoning" }, "geometry": { "type": "Point", "coordinates": [-80.6495, 41.0998] } },
    { "type": "Feature", "properties": { "NAME": "Lorain", "COUNTY": "Lorain" }, "geometry": { "type": "Point", "coordinates": [-82.1824, 41.4528] } },
    { "type": "Feature", "properties": { "NAME": "Hamilton", "COUNTY": "Butler" }, "geometry": { "type": "Point", "coordinates": [-84.5613, 39.3995] } },
    { "type": "Feature", "properties": { "NAME": "Springfield", "COUNTY": "Clark" }, "geometry": { "type": "Point", "coordinates": [-83.8088, 39.9242] } },
    { "type": "Feature", "properties": { "NAME": "Elyria", "COUNTY": "Lorain" }, "geometry": { "type": "Point", "coordinates": [-82.1076, 41.3684] } },
    { "type": "Feature", "properties": { "NAME": "Lakewood", "COUNTY": "Cuyahoga" }, "geometry": { "type": "Point", "coordinates": [-81.7982, 41.4810] } },
    { "type": "Feature", "properties": { "NAME": "Newark", "COUNTY": "Licking" }, "geometry": { "type": "Point", "coordinates": [-82.4013, 40.0581] } }
  ]
}
